[{"OBJECT_NAME":"STARLINK-31339","OBJECT_ID":"2024-031S","EPOCH":"2026-03-09T21:42:06.481152","MEAN_MOTION":15.30192556,"ECCENTRICITY":0.00010509,"INCLINATION":53.1601,"RA_OF_ASC_NODE":295.8638,"ARG_OF_PERICENTER":87.9228,"MEAN_ANOMALY":272.1893,"EPHEMERIS_TYPE":0,"CLASSIFICATION_TYPE":"U","NORAD_CAT_ID":58981,"ELEMENT_SET_NO":999,"REV_AT_EPOCH":11654,"BSTAR":3.0566457e-5,"MEAN_MOTION_DOT":5.46e-6,"MEAN_MOTION_DDOT":0},{"OBJECT_NAME":"KSLV-II R\/B","OBJECT_ID":"2023-072H","EPOCH":"2026-03-09T20:13:26.441760","MEAN_MOTION":15.33109439,"ECCENTRICITY":0.00241884,"INCLINATION":97.4991,"RA_OF_ASC_NODE":274.152,"ARG_OF_PERICENTER":318.2938,"MEAN_ANOMALY":41.646,"EPHEMERIS_TYPE":0,"CLASSIFICATION_TYPE":"U","NORAD_CAT_ID":56750,"ELEMENT_SET_NO":999,"REV_AT_EPOCH":15516,"BSTAR":0.00028309532,"MEAN_MOTION_DOT":9.057e-5,"MEAN_MOTION_DDOT":0}]
